ONEWEB-0020             
1 45133U 20008C   23352.64257485 -.00000092  00000+0 -30035-3 0  9998
2 45133  87.8908 217.3042 0001641  82.4906 277.6408 13.10370366188964
ONEWEB-0021             
1 45134U 20008D   23352.65716695 -.00000527  00000+0 -15464-2 0  9994
2 45134  87.8916 217.3088 0001461  84.9774 275.1520 13.10370418189275
ONEWEB-0023             
1 45136U 20008F   23353.12828986 -.00012141  00000+0 -34832-1 0  9990
2 45136  87.8914 217.2074 0001311  50.8223 309.3021 13.10434550189515
ONEWEB-0024             
1 45137U 20008G   23353.17543886  .00000120  00000+0  30719-3 0  9993
2 45137  87.8898 217.2041 0001401  88.4532 271.6756 13.10369258189687
ONEWEB-0025             
1 45138U 20008H   23352.65879330 -.00000411  00000+0 -12130-2 0  9993
2 45138  87.8904 217.3064 0001453  90.4811 269.6483 13.10373252189191
ONEWEB-0026             
1 45139U 20008J   23353.09782606 -.00109540  00000+0 -31403+0 0  9996
2 45139  87.8983 202.1092 0002707  57.8686 302.2704 13.11142848192574
ONEWEB-0028             
1 45140U 20008K   23352.59552886  .00000144  00000+0  37158-3 0  9992
2 45140  87.8968 202.2550 0000820  67.1519 292.9696 13.11411029189146
